{
  "norad_id": 62783,
  "name": "STARLINK-33582",
  "history": [
    {
      "epoch": "2026-03-28T16:34:54.649056Z",
      "apogee_km": 472.8034301432763,
      "perigee_km": 471.6605145839276,
      "latitude_deg": 5.191256980688932e-06,
      "longitude_deg": 159.1231713665579,
      "height_km": 472.5606880677009,
      "semi_major_axis_km": 6850.368972363602,
      "eccentricity": 8.342e-05,
      "inclination_deg": 53.1584,
      "raan_deg": 233.9586,
      "arg_perigee_deg": 1.7633,
      "mean_anomaly_deg": 358.3371,
      "mean_motion_rev_day": 15.31199632
    }
  ]
}