{"fetched_at":"2026-03-29T16:36:15Z","count":15609,"tles":[{"name":"STARLINK-33582","line1":"1 62783U 25015AB  26087.69091029  .00023849  00000+0  78998-3 0  9997","line2":"2 62783  53.1584 233.9586 0000834   1.7633 358.3371 15.31199632 67323","category":"Starlink"}]}